[{"OBJECT_NAME":"STARLINK-31096","OBJECT_ID":"2023-200D","EPOCH":"2026-03-09T07:03:07.343136","MEAN_MOTION":15.22976409,"ECCENTRICITY":0.00021529,"INCLINATION":43.0024,"RA_OF_ASC_NODE":171.6597,"ARG_OF_PERICENTER":311.2907,"MEAN_ANOMALY":48.7758,"EPHEMERIS_TYPE":0,"CLASSIFICATION_TYPE":"U","NORAD_CAT_ID":58592,"ELEMENT_SET_NO":999,"REV_AT_EPOCH":12354,"BSTAR":0.0018691683,"MEAN_MOTION_DOT":0.00044809,"MEAN_MOTION_DDOT":0},{"OBJECT_NAME":"YAOGAN-43 02D","OBJECT_ID":"2024-156D","EPOCH":"2026-03-09T13:08:17.964960","MEAN_MOTION":15.23237701,"ECCENTRICITY":0.000368,"INCLINATION":34.992,"RA_OF_ASC_NODE":104.6408,"ARG_OF_PERICENTER":78.2879,"MEAN_ANOMALY":281.8248,"EPHEMERIS_TYPE":0,"CLASSIFICATION_TYPE":"U","NORAD_CAT_ID":60948,"ELEMENT_SET_NO":999,"REV_AT_EPOCH":8424,"BSTAR":0.00047394,"MEAN_MOTION_DOT":0.0001148,"MEAN_MOTION_DDOT":0}]
